ONEWEB-0603             
1 54667U 22166AB  23314.61983215  .00000135  00000+0  29635-3 0  9999
2 54667  87.9242  73.0072 0002143  94.2371 265.9008 13.21824801 46030
ONEWEB-0604             
1 54668U 22166AC  23314.60720954 -.00000311  00000+0 -78535-3 0  9999
2 54668  87.9234  73.0052 0002143  87.4106 272.7273 13.21826537 45992
ONEWEB-0605             
1 54669U 22166AD  23314.60091923 -.00000605  00000+0 -14975-2 0  9990
2 54669  87.9254  73.0339 0002362 103.1002 257.0395 13.21827628 46069
ONEWEB-0606             
1 54670U 22166AE  23314.77437749  .00000020  00000+0  16195-4 0  9997
2 54670  87.9238  72.9844 0001434 103.0439 257.0855 13.21823853 46601
ONEWEB-0607             
1 54671U 22166AF  23314.58989160  .00000080  00000+0  16282-3 0  9998
2 54671  87.9231  73.0084 0001953  95.7277 264.4080 13.21825313 46094
ONEWEB-0608             
1 54672U 22166AG  23314.82328244  .00000129  00000+0  28006-3 0  9997
2 54672  87.9239  72.9681 0002420  99.0976 261.0432 13.21828172 46592
ONEWEB-0610             
1 54673U 22166AH  23314.57726824  .00000104  00000+0  22062-3 0  9995
2 54673  87.9241  73.0176 0002255  99.3230 260.8159 13.21828431 46006
ONEWEB-0611             
1 54674U 22166AJ  23314.79804092 -.00000019  00000+0 -77179-4 0  9991
2 54674  87.9242  72.9753 0001157  95.0210 265.1056 13.21826066 46497
